[{"OBJECT_NAME":"ONEWEB-0101","OBJECT_ID":"2021-025H","EPOCH":"2025-09-03T02:33:10.978848","MEAN_MOTION":13.13470504,"ECCENTRICITY":0.00015641,"INCLINATION":87.9021,"RA_OF_ASC_NODE":17.2653,"ARG_OF_PERICENTER":100.2325,"MEAN_ANOMALY":259.898,"EPHEMERIS_TYPE":0,"CLASSIFICATION_TYPE":"U","NORAD_CAT_ID":48049,"ELEMENT_SET_NO":999,"REV_AT_EPOCH":21581,"BSTAR":0.0002703452,"MEAN_MOTION_DOT":1.11e-6,"MEAN_MOTION_DDOT":0},{"OBJECT_NAME":"ONEWEB-0113","OBJECT_ID":"2021-025J","EPOCH":"2025-09-03T02:03:17.706240","MEAN_MOTION":13.13977067,"ECCENTRICITY":0.0001847,"INCLINATION":87.9017,"RA_OF_ASC_NODE":17.2117,"ARG_OF_PERICENTER":92.5801,"MEAN_ANOMALY":267.554,"EPHEMERIS_TYPE":0,"CLASSIFICATION_TYPE":"U","NORAD_CAT_ID":48050,"ELEMENT_SET_NO":999,"REV_AT_EPOCH":21590,"BSTAR":-0.00061381892,"MEAN_MOTION_DOT":-2.13e-6,"MEAN_MOTION_DDOT":0},{"OBJECT_NAME":"ONEWEB-0112","OBJECT_ID":"2021-025K","EPOCH":"2025-09-03T01:44:27.087936","MEAN_MOTION":13.13462433,"ECCENTRICITY":0.0001847,"INCLINATION":87.902,"RA_OF_ASC_NODE":17.2297,"ARG_OF_PERICENTER":99.1384,"MEAN_ANOMALY":260.9955,"EPHEMERIS_TYPE":0,"CLASSIFICATION_TYPE":"U","NORAD_CAT_ID":48051,"ELEMENT_SET_NO":999,"REV_AT_EPOCH":21590,"BSTAR":-0.0025639528,"MEAN_MOTION_DOT":-9.23e-6,"MEAN_MOTION_DDOT":0},{"OBJECT_NAME":"ONEWEB-0156","OBJECT_ID":"2021-025L","EPOCH":"2025-09-02T20:27:31.671360","MEAN_MOTION":13.13469332,"ECCENTRICITY":0.00017994,"INCLINATION":87.9021,"RA_OF_ASC_NODE":17.2852,"ARG_OF_PERICENTER":102.3854,"MEAN_ANOMALY":257.7477,"EPHEMERIS_TYPE":0,"CLASSIFICATION_TYPE":"U","NORAD_CAT_ID":48052,"ELEMENT_SET_NO":999,"REV_AT_EPOCH":21585,"BSTAR":-0.00075743237,"MEAN_MOTION_DOT":-2.64e-6,"MEAN_MOTION_DDOT":0},{"OBJECT_NAME":"ONEWEB-0161","OBJECT_ID":"2021-025M","EPOCH":"2025-09-03T03:09:44.773344","MEAN_MOTION":13.13470519,"ECCENTRICITY":0.00018187,"INCLINATION":87.9023,"RA_OF_ASC_NODE":17.2489,"ARG_OF_PERICENTER":109.9068,"MEAN_ANOMALY":250.2258,"EPHEMERIS_TYPE":0,"CLASSIFICATION_TYPE":"U","NORAD_CAT_ID":48053,"ELEMENT_SET_NO":999,"REV_AT_EPOCH":21582,"BSTAR":0.00024114789,"MEAN_MOTION_DOT":1.01e-6,"MEAN_MOTION_DDOT":0},{"OBJECT_NAME":"ONEWEB-0158","OBJECT_ID":"2021-025N","EPOCH":"2025-09-02T20:42:11.257920","MEAN_MOTION":13.1347181,"ECCENTRICITY":0.00016435,"INCLINATION":87.9023,"RA_OF_ASC_NODE":17.2819,"ARG_OF_PERICENTER":87.3224,"MEAN_ANOMALY":272.8094,"EPHEMERIS_TYPE":0,"CLASSIFICATION_TYPE":"U","NORAD_CAT_ID":48054,"ELEMENT_SET_NO":999,"REV_AT_EPOCH":21591,"BSTAR":-0.00083853551,"MEAN_MOTION_DOT":-2.93e-6,"MEAN_MOTION_DDOT":0},{"OBJECT_NAME":"ONEWEB-0157","OBJECT_ID":"2021-025P","EPOCH":"2025-09-03T02:47:48.716448","MEAN_MOTION":13.1347026,"ECCENTRICITY":0.00016921,"INCLINATION":87.9019,"RA_OF_ASC_NODE":17.24,"ARG_OF_PERICENTER":112.9478,"MEAN_ANOMALY":247.183,"EPHEMERIS_TYPE":0,"CLASSIFICATION_TYPE":"U","NORAD_CAT_ID":48055,"ELEMENT_SET_NO":999,"REV_AT_EPOCH":21588,"BSTAR":0.00078008745,"MEAN_MOTION_DOT":2.98e-6,"MEAN_MOTION_DDOT":0},{"OBJECT_NAME":"ONEWEB-0162","OBJECT_ID":"2021-025Q","EPOCH":"2025-09-03T02:13:29.103744","MEAN_MOTION":13.13469869,"ECCENTRICITY":0.00017765,"INCLINATION":87.9019,"RA_OF_ASC_NODE":17.244,"ARG_OF_PERICENTER":100.0025,"MEAN_ANOMALY":260.1305,"EPHEMERIS_TYPE":0,"CLASSIFICATION_TYPE":"U","NORAD_CAT_ID":48056,"ELEMENT_SET_NO":999,"REV_AT_EPOCH":21585,"BSTAR":-0.00066587284,"MEAN_MOTION_DOT":-2.3e-6,"MEAN_MOTION_DDOT":0},{"OBJECT_NAME":"ONEWEB-0155","OBJECT_ID":"2021-025R","EPOCH":"2025-09-03T02:23:25.757088","MEAN_MOTION":13.13470667,"ECCENTRICITY":0.00015369,"INCLINATION":87.9018,"RA_OF_ASC_NODE":17.2501,"ARG_OF_PERICENTER":101.2352,"MEAN_ANOMALY":258.8949,"EPHEMERIS_TYPE":0,"CLASSIFICATION_TYPE":"U","NORAD_CAT_ID":48057,"ELEMENT_SET_NO":999,"REV_AT_EPOCH":21599,"BSTAR":-0.00031419751,"MEAN_MOTION_DOT":-1.02e-6,"MEAN_MOTION_DDOT":0},{"OBJECT_NAME":"ONEWEB-0149","OBJECT_ID":"2021-025S","EPOCH":"2025-09-03T02:55:08.040576","MEAN_MOTION":13.13470025,"ECCENTRICITY":0.00019299,"INCLINATION":87.9017,"RA_OF_ASC_NODE":17.24,"ARG_OF_PERICENTER":99.5843,"MEAN_ANOMALY":260.5504,"EPHEMERIS_TYPE":0,"CLASSIFICATION_TYPE":"U","NORAD_CAT_ID":48058,"ELEMENT_SET_NO":999,"REV_AT_EPOCH":21580,"BSTAR":0.00089941216,"MEAN_MOTION_DOT":3.41e-6,"MEAN_MOTION_DDOT":0},{"OBJECT_NAME":"ONEWEB-0148","OBJECT_ID":"2021-025T","EPOCH":"2025-09-03T03:51:11.453472","MEAN_MOTION":13.13469853,"ECCENTRICITY":0.00023167,"INCLINATION":87.9016,"RA_OF_ASC_NODE":17.2568,"ARG_OF_PERICENTER":108.3342,"MEAN_ANOMALY":251.8039,"EPHEMERIS_TYPE":0,"CLASSIFICATION_TYPE":"U","NORAD_CAT_ID":48059,"ELEMENT_SET_NO":999,"REV_AT_EPOCH":21593,"BSTAR":-0.00082924598,"MEAN_MOTION_DOT":-2.9e-6,"MEAN_MOTION_DDOT":0},{"OBJECT_NAME":"ONEWEB-0160","OBJECT_ID":"2021-025U","EPOCH":"2025-09-03T02:25:52.286304","MEAN_MOTION":13.134709,"ECCENTRICITY":0.00019762,"INCLINATION":87.9016,"RA_OF_ASC_NODE":17.266,"ARG_OF_PERICENTER":74.079,"MEAN_ANOMALY":286.0557,"EPHEMERIS_TYPE":0,"CLASSIFICATION_TYPE":"U","NORAD_CAT_ID":48060,"ELEMENT_SET_NO":999,"REV_AT_EPOCH":21587,"BSTAR":-3.1100752e-5,"MEAN_MOTION_DOT":1.0e-8,"MEAN_MOTION_DDOT":0},{"OBJECT_NAME":"ONEWEB-0163","OBJECT_ID":"2021-025V","EPOCH":"2025-09-03T02:03:55.699776","MEAN_MOTION":13.13469673,"ECCENTRICITY":0.00016816,"INCLINATION":87.902,"RA_OF_ASC_NODE":17.2492,"ARG_OF_PERICENTER":108.9481,"MEAN_ANOMALY":251.183,"EPHEMERIS_TYPE":0,"CLASSIFICATION_TYPE":"U","NORAD_CAT_ID":48061,"ELEMENT_SET_NO":999,"REV_AT_EPOCH":21599,"BSTAR":-0.00094854377,"MEAN_MOTION_DOT":-3.34e-6,"MEAN_MOTION_DDOT":0},{"OBJECT_NAME":"ONEWEB-0159","OBJECT_ID":"2021-025W","EPOCH":"2025-09-03T01:51:44.153568","MEAN_MOTION":13.13469399,"ECCENTRICITY":0.00017917,"INCLINATION":87.9021,"RA_OF_ASC_NODE":17.2329,"ARG_OF_PERICENTER":105.7086,"MEAN_ANOMALY":254.4241,"EPHEMERIS_TYPE":0,"CLASSIFICATION_TYPE":"U","NORAD_CAT_ID":48062,"ELEMENT_SET_NO":999,"REV_AT_EPOCH":21591,"BSTAR":-0.00064493022,"MEAN_MOTION_DOT":-2.23e-6,"MEAN_MOTION_DDOT":0},{"OBJECT_NAME":"ONEWEB-0164","OBJECT_ID":"2021-025X","EPOCH":"2025-09-02T19:55:50.171520","MEAN_MOTION":13.13474899,"ECCENTRICITY":0.00019265,"INCLINATION":87.9019,"RA_OF_ASC_NODE":17.2922,"ARG_OF_PERICENTER":93.2236,"MEAN_ANOMALY":266.9113,"EPHEMERIS_TYPE":0,"CLASSIFICATION_TYPE":"U","NORAD_CAT_ID":48063,"ELEMENT_SET_NO":999,"REV_AT_EPOCH":21586,"BSTAR":0.0044916728,"MEAN_MOTION_DOT":1.653e-5,"MEAN_MOTION_DDOT":0},{"OBJECT_NAME":"ONEWEB-0167","OBJECT_ID":"2021-025Y","EPOCH":"2025-09-03T02:05:07.653696","MEAN_MOTION":13.13469951,"ECCENTRICITY":0.00010475,"INCLINATION":87.9017,"RA_OF_ASC_NODE":17.2747,"ARG_OF_PERICENTER":114.8598,"MEAN_ANOMALY":245.264,"EPHEMERIS_TYPE":0,"CLASSIFICATION_TYPE":"U","NORAD_CAT_ID":48064,"ELEMENT_SET_NO":999,"REV_AT_EPOCH":21588,"BSTAR":-0.0011975658,"MEAN_MOTION_DOT":-4.25e-6,"MEAN_MOTION_DDOT":0},{"OBJECT_NAME":"ONEWEB-0166","OBJECT_ID":"2021-025Z","EPOCH":"2025-09-03T02:38:03.397056","MEAN_MOTION":13.13469692,"ECCENTRICITY":0.00018529,"INCLINATION":87.9018,"RA_OF_ASC_NODE":17.2199,"ARG_OF_PERICENTER":101.8071,"MEAN_ANOMALY":258.3266,"EPHEMERIS_TYPE":0,"CLASSIFICATION_TYPE":"U","NORAD_CAT_ID":48065,"ELEMENT_SET_NO":999,"REV_AT_EPOCH":21596,"BSTAR":0.00043581087,"MEAN_MOTION_DOT":1.72e-6,"MEAN_MOTION_DDOT":0},{"OBJECT_NAME":"ONEWEB-0151","OBJECT_ID":"2021-025AA","EPOCH":"2025-09-03T02:40:30.222624","MEAN_MOTION":13.13470999,"ECCENTRICITY":0.00015617,"INCLINATION":87.902,"RA_OF_ASC_NODE":17.2444,"ARG_OF_PERICENTER":97.8602,"MEAN_ANOMALY":262.2704,"EPHEMERIS_TYPE":0,"CLASSIFICATION_TYPE":"U","NORAD_CAT_ID":48066,"ELEMENT_SET_NO":999,"REV_AT_EPOCH":21590,"BSTAR":0.00048666858,"MEAN_MOTION_DOT":1.9e-6,"MEAN_MOTION_DDOT":0},{"OBJECT_NAME":"ONEWEB-0170","OBJECT_ID":"2021-025AB","EPOCH":"2025-09-03T02:52:41.021472","MEAN_MOTION":13.13469329,"ECCENTRICITY":0.00014728,"INCLINATION":87.9021,"RA_OF_ASC_NODE":17.2489,"ARG_OF_PERICENTER":82.5379,"MEAN_ANOMALY":277.5917,"EPHEMERIS_TYPE":0,"CLASSIFICATION_TYPE":"U","NORAD_CAT_ID":48067,"ELEMENT_SET_NO":999,"REV_AT_EPOCH":21586,"BSTAR":0.00092279388,"MEAN_MOTION_DOT":3.5e-6,"MEAN_MOTION_DDOT":0},{"OBJECT_NAME":"ONEWEB-0168","OBJECT_ID":"2021-025AC","EPOCH":"2025-09-03T02:30:44.442720","MEAN_MOTION":13.13470865,"ECCENTRICITY":0.00017074,"INCLINATION":87.9023,"RA_OF_ASC_NODE":17.2335,"ARG_OF_PERICENTER":104.3485,"MEAN_ANOMALY":255.7833,"EPHEMERIS_TYPE":0,"CLASSIFICATION_TYPE":"U","NORAD_CAT_ID":48068,"ELEMENT_SET_NO":999,"REV_AT_EPOCH":21587,"BSTAR":-0.0002127542,"MEAN_MOTION_DOT":-6.5e-7,"MEAN_MOTION_DDOT":0},{"OBJECT_NAME":"ONEWEB-0173","OBJECT_ID":"2021-025AD","EPOCH":"2025-09-03T02:18:33.183360","MEAN_MOTION":13.13470109,"ECCENTRICITY":0.0001493,"INCLINATION":87.9021,"RA_OF_ASC_NODE":17.2433,"ARG_OF_PERICENTER":111.9313,"MEAN_ANOMALY":248.1975,"EPHEMERIS_TYPE":0,"CLASSIFICATION_TYPE":"U","NORAD_CAT_ID":48069,"ELEMENT_SET_NO":999,"REV_AT_EPOCH":21611,"BSTAR":-0.00058591735,"MEAN_MOTION_DOT":-2.01e-6,"MEAN_MOTION_DDOT":0},{"OBJECT_NAME":"ONEWEB-0171","OBJECT_ID":"2021-025AE","EPOCH":"2025-09-03T06:51:35.359488","MEAN_MOTION":13.13469963,"ECCENTRICITY":0.00015951,"INCLINATION":87.9017,"RA_OF_ASC_NODE":17.2423,"ARG_OF_PERICENTER":97.0368,"MEAN_ANOMALY":263.0942,"EPHEMERIS_TYPE":0,"CLASSIFICATION_TYPE":"U","NORAD_CAT_ID":48070,"ELEMENT_SET_NO":999,"REV_AT_EPOCH":21595,"BSTAR":0.00078733575,"MEAN_MOTION_DOT":3.0e-6,"MEAN_MOTION_DDOT":0},{"OBJECT_NAME":"ONEWEB-0172","OBJECT_ID":"2021-025AF","EPOCH":"2025-09-03T02:42:55.498176","MEAN_MOTION":13.13470015,"ECCENTRICITY":0.00015695,"INCLINATION":87.9022,"RA_OF_ASC_NODE":17.2441,"ARG_OF_PERICENTER":100.6308,"MEAN_ANOMALY":259.4998,"EPHEMERIS_TYPE":0,"CLASSIFICATION_TYPE":"U","NORAD_CAT_ID":48071,"ELEMENT_SET_NO":999,"REV_AT_EPOCH":21682,"BSTAR":0.00071218726,"MEAN_MOTION_DOT":2.73e-6,"MEAN_MOTION_DDOT":0}]
